{
    "links": {
        "self": "http://www.neowsapp.com/rest/v1/neo/54016436?api_key=iIulBulltgU6a56xZRHN4H3l9WmuAYTsLGpBGhQ2"
    },
    "id": "54016436",
    "neo_reference_id": "54016436",
    "name": "(2020 GG)",
    "designation": "2020 GG",
    "nasa_jpl_url": "http://ssd.jpl.nasa.gov/sbdb.cgi?sstr=54016436",
    "absolute_magnitude_h": 26.54,
    "estimated_diameter": {
        "kilometers": {
            "estimated_diameter_min": 0.0130784109,
            "estimated_diameter_max": 0.0292442157
        },
        "meters": {
            "estimated_diameter_min": 13.0784108584,
            "estimated_diameter_max": 29.2442157171
        },
        "miles": {
            "estimated_diameter_min": 0.0081265452,
            "estimated_diameter_max": 0.0181715076
        },
        "feet": {
            "estimated_diameter_min": 42.9081734807,
            "estimated_diameter_max": 95.9455926932
        }
    },
    "is_potentially_hazardous_asteroid": false,
    "close_approach_data": [
        {
            "close_approach_date": "2020-04-11",
            "close_approach_date_full": "2020-Apr-11 15:21",
            "epoch_date_close_approach": 1586618460000,
            "relative_velocity": {
                "kilometers_per_second": "5.5383714424",
                "kilometers_per_hour": "19938.1371927916",
                "miles_per_hour": "12388.7830795987"
            },
            "miss_distance": {
                "astronomical": "0.0248430876",
                "lunar": "9.6639610764",
                "kilometers": "3716472.989183412",
                "miles": "2309309.2313866056"
            },
            "orbiting_body": "Earth"
        },
        {
            "close_approach_date": "2023-07-19",
            "close_approach_date_full": "2023-Jul-19 20:27",
            "epoch_date_close_approach": 1689798420000,
            "relative_velocity": {
                "kilometers_per_second": "16.1013198062",
                "kilometers_per_hour": "57964.7513023787",
                "miles_per_hour": "36017.0422745252"
            },
            "miss_distance": {
                "astronomical": "0.3884018062",
                "lunar": "151.0883026118",
                "kilometers": "58104082.911672794",
                "miles": "36104202.9471767972"
            },
            "orbiting_body": "Earth"
        }
    ],
    "orbital_data": {
        "orbit_id": "1",
        "orbit_determination_date": "2020-04-03 01:12:03",
        "first_observation_date": "2020-03-22",
        "last_observation_date": "2020-04-03",
        "data_arc_in_days": 12,
        "observations_used": 12,
        "orbit_uncertainty": "8",
        "minimum_orbit_intersection": ".0239226",
        "jupiter_tisserand_invariant": "4.872",
        "epoch_osculation": "2458934.5",
        "eccentricity": ".2603208398918408",
        "semi_major_axis": "1.334878320438079",
        "inclination": "5.15996101673736",
        "ascending_node_longitude": "8.043969841873812",
        "orbital_period": "563.3274920081843",
        "perihelion_distance": ".9873816749082283",
        "perihelion_argument": "222.5519068551297",
        "aphelion_distance": "1.682374965967929",
        "perihelion_time": "2458977.290716357162",
        "mean_anomaly": "332.6541698974022",
        "mean_motion": ".6390598809879666",
        "equinox": "J2000",
        "orbit_class": {
            "orbit_class_type": "APO",
            "orbit_class_description": "Near-Earth asteroid orbits which cross the Earth’s orbit similar to that of 1862 Apollo",
            "orbit_class_range": "a (semi-major axis) > 1.0 AU; q (perihelion) < 1.017 AU"
        }
    },
    "is_sentry_object": false
}